{"type": "FeatureCollection", "features": [ {"type": "Feature", "properties": {"norad_id": 44804, "name": "CARTOSAT-3", "group": "resource", "lat": -61.49754655282522, "lon": -140.15826204142917, "alt_km": 525.0800960064234, "timestamp": "2025-12-20T07:33:50.461405+00:00", "meta": {"OBJECT_NAME": "CARTOSAT-3", "OBJECT_ID": "2019-081A", "EPOCH": "2025-12-19T22:35:49.455168", "MEAN_MOTION": 15.19206682, "ECCENTRICITY": 0.00140243, "INCLINATION": 97.4583, "RA_OF_ASC_NODE": 53.4334, "ARG_OF_PERICENTER": 60.7869, "MEAN_ANOMALY": 299.4766, "EPHEMERIS_TYPE": 0, "CLASSIFICATION_TYPE": "U", "NORAD_CAT_ID": 44804, "ELEMENT_SET_NO": 999, "REV_AT_EPOCH": 33625, "BSTAR": 8.4729063e-05, "MEAN_MOTION_DOT": 1.719e-05, "MEAN_MOTION_DDOT": 0}, "tle": {"line1": "1 44804U 19081A   25353.94154462  .00001719  00000+0  84729-4 0  9993", "line2": "2 44804  97.4583  53.4334 0014024  60.7869 299.4766 15.19206682336259"}}, "geometry": {"type": "Point", "coordinates": [-140.15826204142917, -61.49754655282522]}}, {"type": "Feature", "properties": {"norad_id": 44819, "name": "GAOFEN-12 01", "group": "resource", "lat": 16.923741689284583, "lon": -1.9969165281196566, "alt_km": 629.0602349173605, "timestamp": "2025-12-20T07:33:50.461415+00:00", "meta": {"OBJECT_NAME": "GAOFEN-12 01", "OBJECT_ID": "2019-082A", "EPOCH": "2025-12-19T23:22:39.462240", "MEAN_MOTION": 14.80665233, "ECCENTRICITY": 0.00017916, "INCLINATION": 97.8124, "RA_OF_ASC_NODE": 0.0652, "ARG_OF_PERICENTER": 197.0633, "MEAN_ANOMALY": 163.0519, "EPHEMERIS_TYPE": 0, "CLASSIFICATION_TYPE": "U", "NORAD_CAT_ID": 44819, "ELEMENT_SET_NO": 999, "REV_AT_EPOCH": 32757, "BSTAR": 5.1396455e-05, "MEAN_MOTION_DOT": 3.44e-06, "MEAN_MOTION_DDOT": 0}, "tle": {"line1": "1 44819U 19082A   25353.97406785  .00000344  00000+0  51396-4 0  9998", "line2": "2 44819  97.8124   0.0652 0001791 197.0633 163.0519 14.80665233327576"}}, "geometry": {"type": "Point", "coordinates": [-1.9969165281196566, 16.923741689284583]}}, {"type": "Feature", "properties": {"norad_id": 44873, "name": "CSG-1", "group": "resource", "lat": 10.947925871310575, "lon": -2.939691841536841, "alt_km": 623.9274071275377, "timestamp": "2025-12-20T07:33:50.461426+00:00", "meta": {"OBJECT_NAME": "CSG-1", "OBJECT_ID": "2019-092A", "EPOCH": "2025-12-19T22:42:12.839616", "MEAN_MOTION": 14.82149373, "ECCENTRICITY": 0.00014859, "INCLINATION": 97.8803, "RA_OF_ASC_NODE": 175.1616, "ARG_OF_PERICENTER": 86.1094, "MEAN_ANOMALY": 274.0289, "EPHEMERIS_TYPE": 0, "CLASSIFICATION_TYPE": "U", "NORAD_CAT_ID": 44873, "ELEMENT_SET_NO": 999, "REV_AT_EPOCH": 32492, "BSTAR": 5.7395212e-05, "MEAN_MOTION_DOT": 4.05e-06, "MEAN_MOTION_DDOT": 0}, "tle": {"line1": "1 44873U 19092A   25353.94598194  .00000405  00000+0  57395-4 0  9995", "line2": "2 44873  97.8803 175.1616 0001485  86.1094 274.0289 14.82149373324920"}}, "geometry": {"type": "Point", "coordinates": [-2.939691841536841, 10.947925871310575]}}, {"type": "Feature", "properties": {"norad_id": 46277, "name": "NEMO-HD", "group": "resource", "lat": 65.44754242129353, "lon": -110.57032149281018, "alt_km": 437.92530016695855, "timestamp": "2025-12-20T07:33:50.461436+00:00", "meta": {"OBJECT_NAME": "NEMO-HD", "OBJECT_ID": "2020-061F", "EPOCH": "2025-12-19T23:16:41.920896", "MEAN_MOTION": 15.40467765, "ECCENTRICITY": 0.00014086, "INCLINATION": 97.2204, "RA_OF_ASC_NODE": 52.9764, "ARG_OF_PERICENTER": 51.9577, "MEAN_ANOMALY": 308.1797, "EPHEMERIS_TYPE": 0, "CLASSIFICATION_TYPE": "U", "NORAD_CAT_ID": 46277, "ELEMENT_SET_NO": 999, "REV_AT_EPOCH": 29435, "BSTAR": 0.00018536891, "MEAN_MOTION_DOT": 7.427e-05, "MEAN_MOTION_DDOT": 0}, "tle": {"line1": "1 46277U 20061F   25353.96992964  .00007427  00000+0  18537-3 0  9993", "line2": "2 46277  97.2204  52.9764 0001408  51.9577 308.1797 15.40467765294355"}}, "geometry": {"type": "Point", "coordinates": [-110.57032149281018, 65.44754242129353]}}, {"type": "Feature", "properties": {"norad_id": 46984, "name": "SENTINEL-6A", "group": "resource", "lat": 59.960018651025884, "lon": -83.68360492466469, "alt_km": 1336.6389195245802, "timestamp": "2025-12-20T07:33:50.461446+00:00", "meta": {"OBJECT_NAME": "SENTINEL-6A", "OBJECT_ID": "2020-086A", "EPOCH": "2025-12-19T19:45:19.960416", "MEAN_MOTION": 12.80930846, "ECCENTRICITY": 0.0007715, "INCLINATION": 66.0393, "RA_OF_ASC_NODE": 147.5954, "ARG_OF_PERICENTER": 269.316, "MEAN_ANOMALY": 90.6971, "EPHEMERIS_TYPE": 0, "CLASSIFICATION_TYPE": "U", "NORAD_CAT_ID": 46984, "ELEMENT_SET_NO": 999, "REV_AT_EPOCH": 23735, "BSTAR": -1.8192625e-05, "MEAN_MOTION_DOT": -6.5e-07, "MEAN_MOTION_DDOT": 0}, "tle": {"line1": "1 46984U 20086A   25353.82314769 -.00000065  00000+0 -18193-4 0  9993", "line2": "2 46984  66.0393 147.5954 0007715 269.3160  90.6971 12.80930846237355"}}, "geometry": {"type": "Point", "coordinates": [-83.68360492466469, 59.960018651025884]}}, {"type": "Feature", "properties": {"norad_id": 48079, "name": "GAOFEN-12 02", "group": "resource", "lat": 28.6481174800062, "lon": -16.11309116125061, "alt_km": 624.4892328764836, "timestamp": "2025-12-20T07:33:50.461457+00:00", "meta": {"OBJECT_NAME": "GAOFEN-12 02", "OBJECT_ID": "2021-026A", "EPOCH": "2025-12-19T23:19:27.818400", "MEAN_MOTION": 14.80683133, "ECCENTRICITY": 0.0003595, "INCLINATION": 97.9853, "RA_OF_ASC_NODE": 347.9434, "ARG_OF_PERICENTER": 86.6807, "MEAN_ANOMALY": 273.4816, "EPHEMERIS_TYPE": 0, "CLASSIFICATION_TYPE": "U", "NORAD_CAT_ID": 48079, "ELEMENT_SET_NO": 999, "REV_AT_EPOCH": 25524, "BSTAR": 5.1923957e-05, "MEAN_MOTION_DOT": 3.46e-06, "MEAN_MOTION_DDOT": 0}, "tle": {"line1": "1 48079U 21026A   25353.97184975  .00000346  00000+0  51924-4 0  9994", "line2": "2 48079  97.9853 347.9434 0003595  86.6807 273.4816 14.80683133255248"}}, "geometry": {"type": "Point", "coordinates": [-16.11309116125061, 28.6481174800062]}}, {"type": "Feature", "properties": {"norad_id": 48268, "name": "PLEIADES NEO 3", "group": "resource", "lat": 56.069268024211524, "lon": -101.44847416604486, "alt_km": 617.9381342697243, "timestamp": "2025-12-20T07:33:50.461467+00:00", "meta": {"OBJECT_NAME": "PLEIADES NEO 3", "OBJECT_ID": "2021-034A", "EPOCH": "2025-12-19T22:54:24.463584", "MEAN_MOTION": 14.81671205, "ECCENTRICITY": 0.00013434, "INCLINATION": 97.8951, "RA_OF_ASC_NODE": 66.2922, "ARG_OF_PERICENTER": 89.2303, "MEAN_ANOMALY": 270.9064, "EPHEMERIS_TYPE": 0, "CLASSIFICATION_TYPE": "U", "NORAD_CAT_ID": 48268, "ELEMENT_SET_NO": 999, "REV_AT_EPOCH": 25111, "BSTAR": 1.0043155e-05, "MEAN_MOTION_DOT": 2.7e-07, "MEAN_MOTION_DDOT": 0}, "tle": {"line1": "1 48268U 21034A   25353.95444981  .00000027  00000+0  10043-4 0  9990", "line2": "2 48268  97.8951  66.2922 0001343  89.2303 270.9064 14.81671205251115"}}, "geometry": {"type": "Point", "coordinates": [-101.44847416604486, 56.069268024211524]}}, {"type": "Feature", "properties": {"norad_id": 49070, "name": "PLEIADES NEO 4", "group": "resource", "lat": -56.14461547017343, "lon": 78.58218396062206, "alt_km": 631.9042613754154, "timestamp": "2025-12-20T07:33:50.461477+00:00", "meta": {"OBJECT_NAME": "PLEIADES NEO 4", "OBJECT_ID": "2021-073E", "EPOCH": "2025-12-19T22:05:45.923424", "MEAN_MOTION": 14.81672667, "ECCENTRICITY": 0.00013263, "INCLINATION": 97.8951, "RA_OF_ASC_NODE": 66.2552, "ARG_OF_PERICENTER": 91.5468, "MEAN_ANOMALY": 268.5897, "EPHEMERIS_TYPE": 0, "CLASSIFICATION_TYPE": "U", "NORAD_CAT_ID": 49070, "ELEMENT_SET_NO": 999, "REV_AT_EPOCH": 23482, "BSTAR": -2.9758035e-05, "MEAN_MOTION_DOT": -2.86e-06, "MEAN_MOTION_DDOT": 0}, "tle": {"line1": "1 49070U 21073E   25353.92067041 -.00000286  00000+0 -29758-4 0  9992", "line2": "2 49070  97.8951  66.2552 0001326  91.5468 268.5897 14.81672667234824"}}, "geometry": {"type": "Point", "coordinates": [78.58218396062206, -56.14461547017343]}}, {"type": "Feature", "properties": {"norad_id": 49260, "name": "LANDSAT 9", "group": "resource", "lat": 10.60397794022266, "lon": 60.76741606666343, "alt_km": 703.87451873792, "timestamp": "2025-12-20T07:33:50.461488+00:00", "meta": {"OBJECT_NAME": "LANDSAT 9", "OBJECT_ID": "2021-088A", "EPOCH": "2025-12-19T15:02:03.183936", "MEAN_MOTION": 14.57104632, "ECCENTRICITY": 0.0001115, "INCLINATION": 98.2087, "RA_OF_ASC_NODE": 61.6374, "ARG_OF_PERICENTER": 91.1885, "MEAN_ANOMALY": 268.9441, "EPHEMERIS_TYPE": 0, "CLASSIFICATION_TYPE": "U", "NORAD_CAT_ID": 49260, "ELEMENT_SET_NO": 999, "REV_AT_EPOCH": 22485, "BSTAR": 8.05e-05, "MEAN_MOTION_DOT": 3.17e-06, "MEAN_MOTION_DDOT": 0}, "tle": {"line1": "1 49260U 21088A   25353.62642574  .00000317  00000+0  80500-4 0  9991", "line2": "2 49260  98.2087  61.6374 0001115  91.1885 268.9441 14.57104632224852"}}, "geometry": {"type": "Point", "coordinates": [60.76741606666343, 10.60397794022266]}}, {"type": "Feature", "properties": {"norad_id": 51444, "name": "CSG-2", "group": "resource", "lat": -11.206866539714179, "lon": 177.09578481969896, "alt_km": 626.9755076204037, "timestamp": "2025-12-20T07:33:50.461498+00:00", "meta": {"OBJECT_NAME": "CSG-2", "OBJECT_ID": "2022-008A", "EPOCH": "2025-12-19T23:30:49.141152", "MEAN_MOTION": 14.82149852, "ECCENTRICITY": 0.00014513, "INCLINATION": 97.8797, "RA_OF_ASC_NODE": 175.1932, "ARG_OF_PERICENTER": 83.7983, "MEAN_ANOMALY": 276.3395, "EPHEMERIS_TYPE": 0, "CLASSIFICATION_TYPE": "U", "NORAD_CAT_ID": 51444, "ELEMENT_SET_NO": 999, "REV_AT_EPOCH": 21004, "BSTAR": 2.1850702e-05, "MEAN_MOTION_DOT": 1.22e-06, "MEAN_MOTION_DDOT": 0}, "tle": {"line1": "1 51444U 22008A   25353.97973543  .00000122  00000+0  21851-4 0  9990", "line2": "2 51444  97.8797 175.1932 0001451  83.7983 276.3395 14.82149852210040"}}, "geometry": {"type": "Point", "coordinates": [177.09578481969896, -11.206866539714179]}}]}